{
  "norad_id": 59362,
  "name": "STARLINK-31571",
  "history": [
    {
      "epoch": "2026-03-28T20:49:14.732832Z",
      "apogee_km": 484.2675888672329,
      "perigee_km": 481.89580278845915,
      "latitude_deg": 2.1938072828376643e-05,
      "longitude_deg": 13.142822483565869,
      "height_km": 482.8330829882198,
      "semi_major_axis_km": 6861.218695827845,
      "eccentricity": 0.00017284,
      "inclination_deg": 43.0066,
      "raan_deg": 151.736,
      "arg_perigee_deg": 271.2716,
      "mean_anomaly_deg": 88.7938,
      "mean_motion_rev_day": 15.27569113
    }
  ]
}