{"fetched_at":"2026-03-30T06:02:59Z","count":15439,"tles":[{"name":"STARLINK-31571","line1":"1 59362U 24060Q   26087.86753163 -.00001186  00000+0 -33569-4 0  9996","line2":"2 59362  43.0066 151.7360 0001728 271.2716  88.7938 15.27569113112998","category":"Starlink"}]}